NORAD_CAT_ID,OBJECT_NAME,OBJECT_TYPE,EPOCH,MEAN_MOTION,ECCENTRICITY,INCLINATION,RA_OF_ASC_NODE,ARG_OF_PERICENTER,MEAN_ANOMALY,BSTAR,MEAN_MOTION_DOT,MEAN_MOTION_DDOT,TLE_LINE0,TLE_LINE1,TLE_LINE2,SEMIMAJOR_AXIS,PERIOD,APOGEE,PERIGEE,DECAYED
51975.0,STARLINK-3674,PAYLOAD,2022-08-21 14:00:01,15.08833242,0.0001579,53.2189,87.5598,65.2104,20.2612,0.0017305999999999,0.00027357,0.0,0 STARLINK-3674,1 51975U 22025V   22233.58334491  .00027357  00000-0  17306-2 0  9990,2 51975  53.2189  87.5598 0001579  65.2104  20.2612 15.08833242  1302,6917.901,95.438,540.8580000000002,538.674,0.0
51975.0,STARLINK-3674,PAYLOAD,2022-08-21 22:00:00,15.08841062,0.0001714,53.2187,86.0654,58.7954,38.2749,6.0003e-05,6.67e-06,0.0,0 STARLINK-3674,1 51975U 22025V   22233.91667824  .00000667  00000-0  60003-4 0  9995,2 51975  53.2187  86.0654 0001714  58.7954  38.2749 15.08841062 26708,6917.877,95.437,540.928,538.556,0.0
51975.0,STARLINK-3674,PAYLOAD,2022-08-22 12:00:00,15.08841253,0.0001528,53.2183,83.445,65.3349,322.0433,0.00043787,6.688e-05,0.0,0 STARLINK-3674,1 51975U 22025V   22234.50001157  .00006688  00000-0  43787-3 0  9990,2 51975  53.2183  83.4450 0001528  65.3349 322.0433 15.08841253  1309,6917.877,95.437,540.799,538.685,0.0
51975.0,STARLINK-3674,PAYLOAD,2022-08-22 22:00:00,15.08822465,0.000164,53.2184,81.5767,57.8296,74.0499,0.00053919,8.3e-05,0.0,0 STARLINK-3674,1 51975U 22025V   22234.91667824  .00008300  00000-0  53919-3 0  9995,2 51975  53.2184  81.5767 0001640  57.8296  74.0499 15.08822465  1302,6917.934,95.439,540.934,538.664,0.0
51975.0,STARLINK-3674,PAYLOAD,2022-08-23 06:00:00,15.08846289,0.0001563,53.2181,80.0793,59.5497,83.9041,-0.001829,-0.00029284,0.0,0 STARLINK-3674,1 51975U 22025V   22235.25001157 -.00029284  00000-0 -18290-2 0  9992,2 51975  53.2181  80.0793 0001563  59.5497  83.9041 15.08846289 26903,6917.861,95.437,540.807,538.645,0.0
51975.0,STARLINK-3674,PAYLOAD,2022-08-23 14:00:01,15.08838233,0.0001564,53.2182,78.5823,66.1851,88.8563,0.00071635,0.00011131,0.0,0 STARLINK-3674,1 51975U 22025V   22235.58334491  .00011131  00000-0  71635-3 0  9991,2 51975  53.2182  78.5823 0001564  66.1851  88.8563 15.08838233  1309,6917.886,95.438,540.8330000000002,538.669,0.0
51975.0,STARLINK-3674,PAYLOAD,2022-08-23 22:00:01,15.08827382,0.0001699,53.2182,77.0878,57.9903,108.7108,0.0010590999999999,0.00016602,0.0,0 STARLINK-3674,1 51975U 22025V   22235.91668981  .00016602  00000-0  10591-2 0  9993,2 51975  53.2182  77.0878 0001699  57.9903 108.7108 15.08827382 27003,6917.919,95.438,540.9590000000002,538.609,0.0
51975.0,STARLINK-3674,PAYLOAD,2022-08-24 14:00:01,15.08850636,0.0001631,53.2182,74.0933,66.0426,123.7781,0.00035758,5.409e-05,0.0,0 STARLINK-3674,1 51975U 22025V   22236.58334491  .00005409  00000-0  35758-3 0  9999,2 51975  53.2182  74.0933 0001631  66.0426 123.7781 15.08850636  1306,6917.848000000001,95.437,540.841,538.585,0.0
51975.0,STARLINK-3674,PAYLOAD,2022-08-24 22:00:00,15.08835904,0.0001756,53.2182,72.5987,57.5863,143.8486,0.0016928,0.00026753,0.0,0 STARLINK-3674,1 51975U 22025V   22236.91667824  .00026753  00000-0  16928-2 0  9997,2 51975  53.2182  72.5987 0001756  57.5863 143.8486 15.08835904  1302,6917.893,95.438,540.9730000000002,538.543,0.0
51975.0,STARLINK-3674,PAYLOAD,2022-08-25 06:00:02,15.08868194,0.0001597,53.2182,71.1008,59.6905,153.401,-0.004305,-0.00068206,0.0,0 STARLINK-3674,1 51975U 22025V   22237.25002315 -.00068206  00000-0 -43050-2 0  9990,2 51975  53.2182  71.1008 0001597  59.6905 153.4010 15.08868194 27208,6917.794,95.436,540.764,538.554,0.0
51975.0,STARLINK-3674,PAYLOAD,2022-08-25 14:00:01,15.08826509,0.0001636999999999,53.2177,69.6036,61.8246,162.7947,0.00078492,0.00012221,0.0,0 STARLINK-3674,1 51975U 22025V   22237.58334491  .00012221  00000-0  78492-3 0  9992,2 51975  53.2177  69.6036 0001637  61.8246 162.7947 15.08826509  1302,6917.922,95.438,540.919,538.654,0.0
51975.0,STARLINK-3674,PAYLOAD,2022-08-25 22:00:00,15.08805828,0.0001703,53.2185,68.1095,55.132,181.0625,0.0020737,0.00032838,0.0,0 STARLINK-3674,1 51975U 22025V   22237.91667824  .00032838  00000-0  20737-2 0  9992,2 51975  53.2185  68.1095 0001703  55.1320 181.0625 15.08805828  1301,6917.985,95.44,541.028,538.672,0.0
51975.0,STARLINK-3674,PAYLOAD,2022-08-26 14:00:01,15.08840043,0.0001582,53.2188,65.1151,63.8309,195.5698,-0.00035755,-5.974e-05,0.0,0 STARLINK-3674,1 51975U 22025V   22238.58335648 -.00005974  00000-0 -35755-3 0  9992,2 51975  53.2188  65.1151 0001582  63.8309 195.5698 15.08840043 27409,6917.88,95.438,540.84,538.651,0.0
51975.0,STARLINK-3674,PAYLOAD,2022-08-26 22:00:00,15.08815975,0.0001723,53.2188,63.6203,55.8417,215.0948,0.0023616,0.00037472,0.0,0 STARLINK-3674,1 51975U 22025V   22238.91667824  .00037472  00000-0  23616-2 0  9991,2 51975  53.2188  63.6203 0001723  55.8417 215.0948 15.08815975  1301,6917.954000000002,95.439,541.011,538.627,0.0
51975.0,STARLINK-3674,PAYLOAD,2022-08-27 14:00:01,15.08855978,0.0001567,53.2191,60.62600000000001,64.541,229.5687,-0.00063049,-0.00010313,0.0,0 STARLINK-3674,1 51975U 22025V   22239.58334491 -.00010313  00000-0 -63049-3 0  9998,2 51975  53.2191  60.6260 0001567  64.5410 229.5687 15.08855978  1308,6917.831999999999,95.437,540.781,538.613,0.0
51975.0,STARLINK-3674,PAYLOAD,2022-08-27 22:00:00,15.08828478,0.0001696,53.2189,59.1311,56.7706,248.9539,0.0025765,0.00040943,0.0,0 STARLINK-3674,1 51975U 22025V   22239.91667824  .00040943  00000-0  25765-2 0  9996,2 51975  53.2189  59.1311 0001696  56.7706 248.9539 15.08828478 27606,6917.916,95.438,540.9540000000002,538.607,0.0
51975.0,STARLINK-3674,PAYLOAD,2022-08-28 14:00:01,15.08883378,0.0001496999999999,53.2191,56.1369,64.7161,264.2162,-0.0024815,-0.00039611,0.0,0 STARLINK-3674,1 51975U 22025V   22240.58334491 -.00039611  00000-0 -24815-2 0  9999,2 51975  53.2191  56.1369 0001497  64.7161 264.2162 15.08883378  1304,6917.748000000001,95.435,540.648,538.577,0.0
51975.0,STARLINK-3674,PAYLOAD,2022-08-28 22:00:00,15.08823504,0.0001573,53.2189,54.6419,56.2476,284.3198,0.0019475999999999,0.0003083,0.0,0 STARLINK-3674,1 51975U 22025V   22240.91667824  .00030830  00000-0  19476-2 0  9994,2 51975  53.2189  54.6419 0001573  56.2476 284.3198 15.08823504  1307,6917.931,95.439,540.884,538.7080000000002,0.0
51975.0,STARLINK-3674,PAYLOAD,2022-08-29 14:00:01,15.08860998,0.0001409,53.219,51.648,63.9834,299.7589,-0.0016382999999999,-0.00026282,0.0,0 STARLINK-3674,1 51975U 22025V   22241.58334491 -.00026282  00000-0 -16383-2 0  9991,2 51975  53.2190  51.6480 0001409  63.9834 299.7589 15.08860998  1307,6917.816,95.436,540.656,538.706,0.0
51975.0,STARLINK-3674,PAYLOAD,2022-08-29 16:00:00,15.0885572,0.0001375999999999,53.2188,51.2743,61.595,35.1055,-0.0041926,-0.00066426,0.0,0 STARLINK-3674,1 51975U 22025V   22241.66667824 -.00066426  00000-0 -41926-2 0  9994,2 51975  53.2188  51.2743 0001376  61.5950  35.1055 15.08855720 27875,6917.831999999999,95.437,540.649,538.745,0.0
51975.0,STARLINK-3674,PAYLOAD,2022-08-29 22:00:00,15.08796213,0.0001399,53.2187,50.1529,55.1241,320.2755,0.0027594,0.00043848,0.0,0 STARLINK-3674,1 51975U 22025V   22241.91667824  .00043848  00000-0  27594-2 0  9998,2 51975  53.2187  50.1529 0001399  55.1241 320.2755 15.08796213  1307,6918.014,95.44,540.847,538.911,0.0
51975.0,STARLINK-3674,PAYLOAD,2022-08-30 06:00:00,15.08809939,0.000126,53.2187,48.6549,62.639,324.3282,0.0011584,0.00018181,0.0,0 STARLINK-3674,1 51975U 22025V   22242.25001157  .00018181  00000-0  11584-2 0  9991,2 51975  53.2187  48.6549 0001260  62.6390 324.3282 15.08809939 27955,6917.972,95.439,540.7090000000002,538.966,0.0
51975.0,STARLINK-3674,PAYLOAD,2022-08-30 14:00:01,15.08843105,0.0001319,53.2189,47.1592,63.3287,335.199,-0.001638,-0.00026264,0.0,0 STARLINK-3674,1 51975U 22025V   22242.58334491 -.00026264  00000-0 -16380-2 0  9999,2 51975  53.2189  47.1592 0001319  63.3287 335.1990 15.08843105  1307,6917.871,95.437,540.648,538.823,0.0
51975.0,STARLINK-3674,PAYLOAD,2022-08-30 22:00:00,15.08810698,0.0001409,53.2187,45.6642,54.1243,355.9959,0.0028999,0.00046129,0.0,0 STARLINK-3674,1 51975U 22025V   22242.91667824  .00046129  00000-0  28999-2 0  9994,2 51975  53.2187  45.6642 0001409  54.1243 355.9959 15.08810698  1300,6917.97,95.439,540.81,538.86,0.0
51975.0,STARLINK-3674,PAYLOAD,2022-08-31 14:00:01,15.08836529,0.0001392,53.218,42.6694,60.6826,12.586,0.00032214,4.842e-05,0.0,0 STARLINK-3674,1 51975U 22025V   22243.58334491  .00004842  00000-0  32214-3 0  9991,2 51975  53.2180  42.6694 0001392  60.6826  12.5860 15.08836529  1305,6917.891,95.438,540.719,538.793,0.0
51975.0,STARLINK-3674,PAYLOAD,2022-08-31 22:00:00,15.08796621,0.000157,53.2189,41.1754,55.8274,29.0015,0.0027851,0.00044263,0.0,0 STARLINK-3674,1 51975U 22025V   22243.91667824  .00044263  00000-0  27851-2 0  9998,2 51975  53.2189  41.1754 0001570  55.8274  29.0015 15.08796621 28207,6918.013000000001,95.44,540.964,538.7919999999998,0.0
51975.0,STARLINK-3674,PAYLOAD,2022-09-01 14:00:01,15.08844538,0.0001561,53.2193,38.1819,62.3873,45.6366,-0.0016441,-0.00026362,0.0,0 STARLINK-3674,1 51975U 22025V   22244.58335648 -.00026362  00000-0 -16441-2 0  9993,2 51975  53.2193  38.1819 0001561  62.3873  45.6366 15.08844538 28314,6917.8669999999975,95.437,540.811,538.6519999999998,0.0
51975.0,STARLINK-3674,PAYLOAD,2022-09-01 22:00:00,15.08817712,0.0001629999999999,53.2194,36.6867,54.7829,64.7697,0.0025369,0.00040293,0.0,0 STARLINK-3674,1 51975U 22025V   22244.91667824  .00040293  00000-0  25369-2 0  9990,2 51975  53.2194  36.6867 0001630  54.7829  64.7697 15.08817712  1307,6917.949000000001,95.439,540.941,538.686,0.0
51975.0,STARLINK-3674,PAYLOAD,2022-09-02 08:00:01,15.08822667,0.0001509,53.2197,34.8143,63.7987,160.2434,0.0025,0.00039705,0.0,0 STARLINK-3674,1 51975U 22025V   22245.33334491  .00039705  00000-0  25000-2 0  9996,2 51975  53.2197  34.8143 0001509  63.7987 160.2434 15.08822667 28425,6917.933000000001,95.439,540.842,538.754,0.0
